OBJECT_NAME,OBJECT_ID,EPOCH,MEAN_MOTION,ECCENTRICITY,INCLINATION,RA_OF_ASC_NODE,ARG_OF_PERICENTER,MEAN_ANOMALY,EPHEMERIS_TYPE,CLASSIFICATION_TYPE,NORAD_CAT_ID,ELEMENT_SET_NO,REV_AT_EPOCH,BSTAR,MEAN_MOTION_DOT,MEAN_MOTION_DDOT
COSMOS 2058,1990-010A,2026-07-20T03:45:38.602656,15.12174708,.00083485,82.4675,276.8383,229.4494,130.6010,0,U,20465,999,96225,.11726581E-3,.2053E-4,0
SL-14 R/B,1990-010B,2026-07-20T06:46:23.019168,14.83664830,.00186901,82.5039,142.8660,219.3945,140.5912,0,U,20466,999,94814,.22150478E-4,.207E-5,0
SL-14 R/B,1990-018B,2026-07-20T02:09:48.426912,14.82235909,.00166643,82.5214,99.3550,21.4419,338.7490,0,U,20511,999,94219,.22653194E-4,.205E-5,0
HST,1990-037B,2026-07-20T06:12:25.274304,15.31090554,.00021205,28.4721,214.4792,152.4827,207.5881,0,U,20580,999,79364,.96916938E-4,.3225E-4,0
SL-16 R/B,1990-046B,2026-07-20T05:50:59.667360,14.15027971,.00122644,70.9995,19.5196,105.3827,254.8651,0,U,20625,999,86714,.17140425E-3,.285E-5,0
COSMOS 2084,1990-055A,2026-07-20T02:58:53.466816,15.06233099,.00086921,62.7876,243.6609,322.7206,37.3291,0,U,20663,999,95626,.62068986E-4,.711E-5,0
SL-6 R/B(2),1990-055D,2026-07-20T07:00:13.835520,15.04101040,.004593,62.7809,162.7149,9.6961,350.5014,0,U,20666,999,95813,.95514417E-4,.1149E-4,0
SL-8 R/B,1990-078B,2026-07-20T05:36:01.814112,14.93655057,.03430031,82.9032,131.7493,286.3648,70.0121,0,U,20775,999,82905,.19769446E-3,.6983E-4,0
SL-8 R/B,1991-006B,2026-07-20T02:56:52.562976,13.77509931,.00231438,82.9403,71.5290,27.1972,84.4150,0,U,21088,999,78230,.57679238E-4,.73E-6,0
OKEAN-3,1991-039A,2026-07-20T07:22:02.406720,15.05452392,.00128836,82.5150,208.2604,234.8831,125.1189,0,U,21397,999,88498,.1161257E-3,.1698E-4,0
COSMOS 2151,1991-042A,2026-07-20T06:28:30.288864,15.00521829,.00114932,82.4983,315.7540,337.7287,22.3437,0,U,21422,999,88307,.79672124E-4,.1032E-4,0
SL-14 R/B,1991-042B,2026-07-20T04:06:34.185600,14.81919673,.00174119,82.4929,95.9650,160.7900,199.3974,0,U,21423,999,87269,.20088858E-4,.183E-5,0
ERS-1,1991-050A,2026-07-20T01:00:06.419808,14.39535662,.00322066,98.7796,222.5421,167.5134,192.6859,0,U,21574,999,83477,.73420401E-4,.184E-5,0
ARIANE 40 R/B,1991-050F,2026-07-20T03:00:22.303296,14.42973448,.00039032,98.1859,248.2562,50.3430,309.8105,0,U,21610,999,83809,.45230201E-4,.11E-5,0
INTERCOSMOS 25,1991-086A,2026-07-20T03:04:55.850016,12.12243073,.14848177,82.6000,229.8758,191.2811,165.1215,0,U,21819,999,51273,.10285997E-3,.538E-5,0
SL-8 R/B,1992-008B,2026-07-19T23:51:27.589248,13.75984595,.00358976,82.9277,169.3959,123.5905,299.5198,0,U,21876,999,72761,.97625093E-4,.111E-5,0
SL-8 R/B,1992-020B,2026-07-20T03:54:18.011808,13.75549862,.00278119,82.9276,55.3590,289.0534,192.9804,0,U,21938,999,71934,-.27015333E-4,-.11E-6,0
USA 81,1992-023A,2026-07-20T02:34:21.348192,14.32405712,.00017634,85.0048,55.0017,64.9745,295.1630,0,U,21949,999,11374,.24733534E-4,.87E-6,0
COSMOS 2219,1992-076A,2026-07-20T02:00:05.977728,14.14106806,.00185514,71.0608,101.3057,350.1872,9.8886,0,U,22219,999,73709,-.1204586E-3,-.277E-5,0
SL-16 R/B,1992-076B,2026-07-20T03:11:14.297568,14.16877883,.00150379,70.9998,269.3805,255.9265,124.4214,0,U,22220,999,74059,-.52154589E-4,-.153E-5,0
COSMOS 2221,1992-080A,2026-07-19T23:13:38.273376,14.96611518,.00159076,82.5050,152.3582,105.6241,254.6738,0,U,22236,999,80057,.70083978E-4,.827E-5,0
SL-16 R/B,1992-093B,2026-07-20T02:29:19.946976,14.15463890,.00021637,71.0213,86.2912,120.4085,239.7252,0,U,22285,999,73189,-.10075009E-3,-.244E-5,0
COSMOS 2228,1992-094A,2026-07-20T05:27:05.622624,14.97684142,.00166887,82.5186,110.3954,211.0640,148.9598,0,U,22286,999,79589,.77801825E-4,.94E-5,0
SL-16 R/B,1993-016B,2026-07-20T05:29:12.854400,14.15315705,.00085947,71.0086,296.8090,128.9505,231.2385,0,U,22566,999,72092,.17207437E-3,.288E-5,0
COSMOS 2242,1993-024A,2026-07-20T06:26:49.174080,14.96993525,.00149931,82.5202,139.8933,214.2372,145.7886,0,U,22626,999,80022,.75392798E-4,.895E-5,0
SL-16 R/B,1993-059B,2026-07-20T02:21:06.158880,14.17250036,.00169444,70.9901,91.9017,1.2167,358.8995,0,U,22803,999,69829,.11056883E-3,.176E-5,0
ARIANE 40 R/B,1993-061H,2026-07-20T03:56:23.534592,14.32919655,.00095995,98.4802,267.3336,249.2416,110.7740,0,U,22830,999,71307,.3926982E-4,.64E-6,0
COSMOS 2278,1994-023A,2026-07-20T03:11:32.774208,14.14394566,.00093652,71.0516,257.9947,198.1561,161.9229,0,U,23087,999,66353,.11346601E-3,.17E-5,0
SL-16 R/B,1994-023B,2026-07-20T06:16:28.289856,14.15027157,.00012795,70.9994,152.4723,107.9800,252.1462,0,U,23088,999,66484,.18909884E-3,.319E-5,0
SL-16 R/B,1994-074B,2026-07-20T02:01:22.185984,14.79526698,.00075075,97.6984,226.4330,140.1416,284.3836,0,U,23343,999,70682,.32444269E-4,.194E-5,0
