COSMOS 2058             
1 20465U 90010A   26201.15669679  .00002053  00000+0  11727-3 0  9997
2 20465  82.4675 276.8383 0008348 229.4494 130.6010 15.12174708962256
SL-14 R/B               
1 20466U 90010B   26201.28221087  .00000207  00000+0  22150-4 0  9991
2 20466  82.5039 142.8660 0018690 219.3945 140.5912 14.83664830948142
SL-14 R/B               
1 20511U 90018B   26201.09014383  .00000205  00000+0  22653-4 0  9994
2 20511  82.5214  99.3550 0016664  21.4419 338.7490 14.82235909942190
HST                     
1 20580U 90037B   26201.25862586  .00003225  00000+0  96917-4 0  9994
2 20580  28.4721 214.4792 0002120 152.4827 207.5881 15.31090554793647
SL-16 R/B               
1 20625U 90046B   26201.24374615  .00000285  00000+0  17140-3 0  9997
2 20625  70.9995  19.5196 0012264 105.3827 254.8651 14.15027971867142
COSMOS 2084             
1 20663U 90055A   26201.12422994  .00000711  00000+0  62069-4 0  9995
2 20663  62.7876 243.6609 0008692 322.7206  37.3291 15.06233099956263
SL-6 R/B(2)             
1 20666U 90055D   26201.29182680  .00001149  00000+0  95514-4 0  9998
2 20666  62.7809 162.7149 0045930   9.6961 350.5014 15.04101040958136
SL-8 R/B                
1 20775U 90078B   26201.23335433  .00006983  00000+0  19769-3 0  9992
2 20775  82.9032 131.7493 0343003 286.3648  70.0121 14.93655057829055
SL-8 R/B                
1 21088U 91006B   26201.12283059  .00000073  00000+0  57679-4 0  9993
2 21088  82.9403  71.5290 0023143  27.1972  84.4150 13.77509931782309
OKEAN-3                 
1 21397U 91039A   26201.30697230  .00001698  00000+0  11613-3 0  9993
2 21397  82.5150 208.2604 0012883 234.8831 125.1189 15.05452392884988
COSMOS 2151             
1 21422U 91042A   26201.26979501  .00001032  00000+0  79672-4 0  9997
2 21422  82.4983 315.7540 0011493 337.7287  22.3437 15.00521829883077
SL-14 R/B               
1 21423U 91042B   26201.17122900  .00000183  00000+0  20089-4 0  9995
2 21423  82.4929  95.9650 0017411 160.7900 199.3974 14.81919673872692
ERS-1                   
1 21574U 91050A   26201.04174097  .00000184  00000+0  73420-4 0  9999
2 21574  98.7796 222.5421 0032206 167.5134 192.6859 14.39535662834778
ARIANE 40 R/B           
1 21610U 91050F   26201.12525814  .00000110  00000+0  45230-4 0  9993
2 21610  98.1859 248.2562 0003903  50.3430 309.8105 14.42973448838091
INTERCOSMOS 25          
1 21819U 91086A   26201.12842419  .00000538  00000+0  10286-3 0  9992
2 21819  82.6000 229.8758 1484817 191.2811 165.1215 12.12243073512730
SL-8 R/B                
1 21876U 92008B   26200.99406932  .00000111  00000+0  97625-4 0  9990
2 21876  82.9277 169.3959 0035897 123.5905 299.5198 13.75984595727612
SL-8 R/B                
1 21938U 92020B   26201.16270847 -.00000011  00000+0 -27015-4 0  9994
2 21938  82.9276  55.3590 0027811 289.0534 192.9804 13.75549862719343
USA 81                  
1 21949U 92023A   26201.10719153  .00000087  00000+0  24734-4 0  9997
2 21949  85.0048  55.0017 0001763  64.9745 295.1630 14.32405712113743
COSMOS 2219             
1 22219U 92076A   26201.08340252 -.00000277  00000+0 -12046-3 0  9998
2 22219  71.0608 101.3057 0018551 350.1872   9.8886 14.14106806737099
SL-16 R/B               
1 22220U 92076B   26201.13280437 -.00000153  00000+0 -52155-4 0  9993
2 22220  70.9998 269.3805 0015037 255.9265 124.4214 14.16877883740591
COSMOS 2221             
1 22236U 92080A   26200.96780409  .00000827  00000+0  70084-4 0  9996
2 22236  82.5050 152.3582 0015907 105.6241 254.6738 14.96611518800571
SL-16 R/B               
1 22285U 92093B   26201.10370309 -.00000244  00000+0 -10075-3 0  9993
2 22285  71.0213  86.2912 0002163 120.4085 239.7252 14.15463890731894
COSMOS 2228             
1 22286U 92094A   26201.22714841  .00000940  00000+0  77802-4 0  9994
2 22286  82.5186 110.3954 0016688 211.0640 148.9598 14.97684142795896
SL-16 R/B               
1 22566U 93016B   26201.22862100  .00000288  00000+0  17207-3 0  9999
2 22566  71.0086 296.8090 0008594 128.9505 231.2385 14.15315705720921
COSMOS 2242             
1 22626U 93024A   26201.26862470  .00000895  00000+0  75393-4 0  9994
2 22626  82.5202 139.8933 0014993 214.2372 145.7886 14.96993525800226
SL-16 R/B               
1 22803U 93059B   26201.09798795  .00000176  00000+0  11057-3 0  9996
2 22803  70.9901  91.9017 0016944   1.2167 358.8995 14.17250036698291
ARIANE 40 R/B           
1 22830U 93061H   26201.16416128  .00000064  00000+0  39270-4 0  9998
2 22830  98.4802 267.3336 0009599 249.2416 110.7740 14.32919655713071
COSMOS 2278             
1 23087U 94023A   26201.13301822  .00000170  00000+0  11347-3 0  9995
2 23087  71.0516 257.9947 0009365 198.1561 161.9229 14.14394566663535
SL-16 R/B               
1 23088U 94023B   26201.26143854  .00000319  00000+0  18910-3 0  9997
2 23088  70.9994 152.4723 0001279 107.9800 252.1462 14.15027157664842
SL-16 R/B               
1 23343U 94074B   26201.08428456  .00000194  00000+0  32444-4 0  9991
2 23343  97.6984 226.4330 0007507 140.1416 284.3836 14.79526698706820
